[{"OBJECT_NAME":"TDRS 11","OBJECT_ID":"2013-004A","EPOCH":"2026-03-29T03:38:48.790176","MEAN_MOTION":1.00271129,"ECCENTRICITY":0.000444,"INCLINATION":3.4036,"RA_OF_ASC_NODE":29.82,"ARG_OF_PERICENTER":353.8369,"MEAN_ANOMALY":43.1667,"EPHEMERIS_TYPE":0,"CLASSIFICATION_TYPE":"U","NORAD_CAT_ID":39070,"ELEMENT_SET_NO":999,"REV_AT_EPOCH":4589,"BSTAR":0,"MEAN_MOTION_DOT":6.3e-7,"MEAN_MOTION_DDOT":0},{"OBJECT_NAME":"TDRS 12","OBJECT_ID":"2014-004A","EPOCH":"2026-03-29T00:51:30.060576","MEAN_MOTION":1.00279282,"ECCENTRICITY":0.0003455,"INCLINATION":3.9004,"RA_OF_ASC_NODE":17.7016,"ARG_OF_PERICENTER":257.7886,"MEAN_ANOMALY":242.6507,"EPHEMERIS_TYPE":0,"CLASSIFICATION_TYPE":"U","NORAD_CAT_ID":39504,"ELEMENT_SET_NO":999,"REV_AT_EPOCH":4347,"BSTAR":0,"MEAN_MOTION_DOT":-2.86e-6,"MEAN_MOTION_DDOT":0},{"OBJECT_NAME":"GPM-CORE","OBJECT_ID":"2014-009C","EPOCH":"2026-03-29T03:07:58.830528","MEAN_MOTION":15.45118434,"ECCENTRICITY":0.0012445,"INCLINATION":64.9728,"RA_OF_ASC_NODE":216.3483,"ARG_OF_PERICENTER":272.586,"MEAN_ANOMALY":87.3856,"EPHEMERIS_TYPE":0,"CLASSIFICATION_TYPE":"U","NORAD_CAT_ID":39574,"ELEMENT_SET_NO":999,"REV_AT_EPOCH":68544,"BSTAR":0.00042136,"MEAN_MOTION_DOT":0.00019919,"MEAN_MOTION_DDOT":0},{"OBJECT_NAME":"MMS 1","OBJECT_ID":"2015-011A","EPOCH":"2026-03-29T06:00:02.998944","MEAN_MOTION":0.28310483,"ECCENTRICITY":0.8385576,"INCLINATION":71.0585,"RA_OF_ASC_NODE":349.8665,"ARG_OF_PERICENTER":165.7789,"MEAN_ANOMALY":64.4561,"EPHEMERIS_TYPE":0,"CLASSIFICATION_TYPE":"U","NORAD_CAT_ID":40482,"ELEMENT_SET_NO":999,"REV_AT_EPOCH":130,"BSTAR":0,"MEAN_MOTION_DOT":-1.586e-5,"MEAN_MOTION_DDOT":0},{"OBJECT_NAME":"MMS 2","OBJECT_ID":"2015-011B","EPOCH":"2026-03-29T06:00:02.998944","MEAN_MOTION":0.28310479,"ECCENTRICITY":0.8386318,"INCLINATION":71.0587,"RA_OF_ASC_NODE":349.8686,"ARG_OF_PERICENTER":165.7849,"MEAN_ANOMALY":64.4405,"EPHEMERIS_TYPE":0,"CLASSIFICATION_TYPE":"U","NORAD_CAT_ID":40483,"ELEMENT_SET_NO":999,"REV_AT_EPOCH":130,"BSTAR":0,"MEAN_MOTION_DOT":-1.587e-5,"MEAN_MOTION_DDOT":0},{"OBJECT_NAME":"MMS 3","OBJECT_ID":"2015-011C","EPOCH":"2026-03-29T06:00:02.998944","MEAN_MOTION":0.28310448,"ECCENTRICITY":0.8385577,"INCLINATION":71.0613,"RA_OF_ASC_NODE":349.8733,"ARG_OF_PERICENTER":165.7791,"MEAN_ANOMALY":64.4462,"EPHEMERIS_TYPE":0,"CLASSIFICATION_TYPE":"U","NORAD_CAT_ID":40484,"ELEMENT_SET_NO":999,"REV_AT_EPOCH":130,"BSTAR":0,"MEAN_MOTION_DOT":-1.587e-5,"MEAN_MOTION_DDOT":0},{"OBJECT_NAME":"MMS 4","OBJECT_ID":"2015-011D","EPOCH":"2026-03-29T06:00:02.998944","MEAN_MOTION":0.28310434,"ECCENTRICITY":0.8385104,"INCLINATION":71.0589,"RA_OF_ASC_NODE":349.8685,"ARG_OF_PERICENTER":165.7866,"MEAN_ANOMALY":64.4326,"EPHEMERIS_TYPE":0,"CLASSIFICATION_TYPE":"U","NORAD_CAT_ID":40485,"ELEMENT_SET_NO":999,"REV_AT_EPOCH":130,"BSTAR":0,"MEAN_MOTION_DOT":-1.587e-5,"MEAN_MOTION_DDOT":0},{"OBJECT_NAME":"TDRS 13","OBJECT_ID":"2017-047A","EPOCH":"2026-03-29T04:25:14.335680","MEAN_MOTION":1.00271764,"ECCENTRICITY":0.0011366,"INCLINATION":3.4347,"RA_OF_ASC_NODE":0.708,"ARG_OF_PERICENTER":97.5212,"MEAN_ANOMALY":143.1869,"EPHEMERIS_TYPE":0,"CLASSIFICATION_TYPE":"U","NORAD_CAT_ID":42915,"ELEMENT_SET_NO":999,"REV_AT_EPOCH":3154,"BSTAR":0,"MEAN_MOTION_DOT":-1.17e-6,"MEAN_MOTION_DDOT":0},{"OBJECT_NAME":"NOAA 20 (JPSS-1)","OBJECT_ID":"2017-073A","EPOCH":"2026-03-29T03:23:28.431456","MEAN_MOTION":14.19541157,"ECCENTRICITY":0.0001899,"INCLINATION":98.7714,"RA_OF_ASC_NODE":28.3377,"ARG_OF_PERICENTER":111.4734,"MEAN_ANOMALY":248.6645,"EPHEMERIS_TYPE":0,"CLASSIFICATION_TYPE":"U","NORAD_CAT_ID":43013,"ELEMENT_SET_NO":999,"REV_AT_EPOCH":43311,"BSTAR":6.908e-5,"MEAN_MOTION_DOT":1.02e-6,"MEAN_MOTION_DDOT":0}]
